QIANFAN-81              
1 63167U 25046J   25286.57152186  .00000140  00000+0  19778-3 0  9997
2 63167  88.9797 326.1003 0012647 297.8386  62.1483 13.50985907 39363
QIANFAN-82              
1 63168U 25046K   25286.60465598  .00000132  00000+0  18658-3 0  9993
2 63168  88.9798 326.1404 0010931 307.6585  52.3574 13.50968372 39353
QIANFAN-83              
1 63169U 25046L   25286.60259458  .00000157  00000+0  18756-3 0  9996
2 63169  88.9798 326.0350 0011988 293.8240  66.1660 13.61962662 39414
QIANFAN-84              
1 63170U 25046M   25286.63302808  .00000089  00000+0  11903-3 0  9990
2 63170  88.9798 326.2704 0013816 302.3716  57.6098 13.50985950 39285
QIANFAN-85              
1 63171U 25046N   25286.62935380  .00000175  00000+0  25196-3 0  9992
2 63171  88.9797 326.1428 0011245 306.1495  53.8615 13.50971318 39351
QIANFAN-86              
1 63172U 25046P   25286.63759777  .00000152  00000+0  21708-3 0  9998
2 63172  88.9799 326.0026 0009214 312.4004  47.6367 13.50968334 39434
QIANFAN-87              
1 63173U 25046Q   25282.68330257  .00000145  00000+0  20656-3 0  9991
2 63173  88.9804 326.5243 0010016 319.1660  40.8739 13.50979787 38837
QIANFAN-88              
1 63174U 25046R   25283.51451471  .00000149  00000+0  21299-3 0  9995
2 63174  88.9800 326.3915 0010557 325.4993  34.5472 13.50973338 38972
